      2.10          N: GNSS NAV DATA                        RINEX VERSION / TYPE
fic2rin                                 11/06/2023 00:17:34 PGM / RUN BY / DATE
                                                            END OF HEADER
3  23 11  5  2  0  0.0 -.352044589818D-04  .246700437856D-10  .000000000000D+00
     .110000000000D+02 -.478437500000D+02  .401731019424D-08 -.186326815376D+01
    -.246427953243D-05  .509163003881D-02  .504776835442D-05  .515357276535D+04
     .720000000000D+04  .152736902237D-06  .421206884386D+00 -.428408384323D-07
     .981505212409D+00  .295406250000D+03  .111619090563D+01 -.784211236974D-08
    -.285726187357D-10  .100000000000D+01  .228700000000D+04  .000000000000D+00
     .240000000000D+01  .000000000000D+00  .186264514923D-08  .110000000000D+02
     .000000000000D+00  .400000000000D+01
2  23 11  5  2  0  0.0 -.533148180693D-03  .488853402203D-11  .000000000000D+00
     .460000000000D+02  .307187500000D+02  .433696636634D-08  .195131660232D+01
     .138022005558D-05  .161738257157D-01  .480189919472D-05  .515373658752D+04
     .720000000000D+04  .216066837311D-06 -.709682942263D+00 -.104308128357D-06
     .967703450767D+00  .280968750000D+03 -.132038713382D+01 -.788675708652D-08
    -.160363822654D-09  .100000000000D+01  .228700000000D+04  .000000000000D+00
     .240000000000D+01  .000000000000D+00 -.176951289177D-07  .460000000000D+02
     .000000000000D+00  .400000000000D+01
1  23 11  5  2  0  0.0  .163233838975D-03 -.113686837722D-12  .000000000000D+00
     .350000000000D+02  .264062500000D+02  .397730852801D-08 -.672025575923D+00
     .144541263580D-05  .128953312524D-01  .555999577045D-05  .515363296890D+04
     .720000000000D+04 -.521540641785D-07 -.607540300595D+00  .245869159698D-06
     .990592050524D+00  .286687500000D+03  .990356068671D+00 -.804926385558D-08
    -.725030200418D-10  .100000000000D+01  .228700000000D+04  .000000000000D+00
     .240000000000D+01  .630000000000D+02  .512227416039D-08  .350000000000D+02
     .000000000000D+00  .400000000000D+01
4  23 11  5  2  0  0.0  .204047653824D-03  .105728759081D-10  .000000000000D+00
     .550000000000D+02 -.611250000000D+02  .432482300338D-08  .117488800806D+01
    -.305473804474D-05  .266103923786D-02  .792741775513D-05  .515361088181D+04
     .720000000000D+04 -.335276126862D-07  .150137758700D+01  .931322574615D-07
     .963272160723D+00  .228312500000D+03 -.305927853230D+01 -.786211320286D-08
     .110004582132D-09  .100000000000D+01  .228700000000D+04  .000000000000D+00
     .240000000000D+01  .000000000000D+00 -.419095158577D-08  .550000000000D+02
     .000000000000D+00  .400000000000D+01
16 23 11  5  3 59 44.0 -.427536666393D-03  .648014975013D-11  .000000000000D+00
     .770000000000D+02  .320625000000D+02  .454054627483D-08 -.278626246395D+01
     .135041773319D-05  .135852935491D-01  .744871795177D-05  .515367987251D+04
     .143840000000D+05  .856816768646D-07 -.263474910788D+01 -.232830643654D-06
     .963863093315D+00  .238593750000D+03  .799773428425D+00 -.777068082290D-08
    -.750031241812D-10  .100000000000D+01  .228700000000D+04  .000000000000D+00
     .240000000000D+01  .000000000000D+00 -.102445483208D-07  .770000000000D+02
     .720000000000D+04  .400000000000D+01
3  23 11  5  4  0  0.0 -.350270420313D-04  .246700437856D-10  .000000000000D+00
     .120000000000D+02 -.502812500000D+02  .417803117463D-08 -.812926826237D+00
    -.267848372459D-05  .509168615099D-02  .474229454994D-05  .515357374001D+04
     .144000000000D+05 -.167638063431D-07  .421149938837D+00  .139698386192D-06
     .981503724621D+00  .298437500000D+03  .111608857012D+01 -.808033657845D-08
    -.821462788651D-10  .100000000000D+01  .228700000000D+04  .000000000000D+00
     .240000000000D+01  .000000000000D+00  .186264514923D-08  .120000000000D+02
     .720000000000D+04  .400000000000D+01
2  23 11  5  4  0  0.0 -.533112790436D-03  .488853402203D-11  .000000000000D+00
     .480000000000D+02  .454062500000D+02  .439804033889D-08  .300136478300D+01
     .239908695221D-05  .161727858940D-01  .513345003128D-05  .515373980522D+04
     .144000000000D+05  .359490513802D-06 -.709740835783D+00  .111758708954D-06
     .967702589109D+00  .278250000000D+03 -.132029504752D+01 -.793854495798D-08
     .225009372544D-10  .100000000000D+01  .228700000000D+04  .000000000000D+00
     .240000000000D+01  .000000000000D+00 -.176951289177D-07  .480000000000D+02
     .720000000000D+04  .400000000000D+01
1  23 11  5  4  0  0.0  .163232907653D-03 -.113686837722D-12  .000000000000D+00
     .360000000000D+02  .350312500000D+02  .399945230753D-08  .378189775339D+00
     .192411243916D-05  .128965365002D-01  .561214983463D-05  .515363530350D+04
     .144000000000D+05 -.875443220139D-07 -.607599063088D+00  .707805156708D-07
     .990591425858D+00  .285750000000D+03  .990342251410D+00 -.813962476233D-08
    -.464305054455D-10  .100000000000D+01  .228700000000D+04  .000000000000D+00
     .240000000000D+01  .630000000000D+02  .512227416039D-08  .360000000000D+02
     .720000000000D+04  .400000000000D+01
5  23 11  5  4  0  0.0 -.149175524712D-03 -.147792889038D-11  .000000000000D+00
     .890000000000D+02 -.450937500000D+02  .437303929750D-08  .283659450279D+01
    -.234507024288D-05  .591886846814D-02  .461935997009D-05  .515375525475D+04
     .144000000000D+05  .596046447754D-07  .372487845854D+00 -.856816768646D-07
     .968533209124D+00  .293187500000D+03  .123846726457D+01 -.800783355841D-08
    -.560737642688D-10  .100000000000D+01  .228700000000D+04  .000000000000D+00
     .340000000000D+01  .000000000000D+00 -.111758708954D-07  .890000000000D+02
     .720000000000D+04  .400000000000D+01
12 23 11  5  4  0  0.0 -.443560536951D-03 -.409272615798D-11  .000000000000D+00
     .400000000000D+01  .314687500000D+02  .465269380337D-08 -.101324289098D+01
     .184960663319D-05  .867842137814D-02  .721588730812D-05  .515376275635D+04
     .144000000000D+05 -.949949026108D-07 -.265283801239D+01  .171363353729D-06
     .964270793955D+00  .248281250000D+03  .139496843545D+01 -.810319467344D-08
    -.992898501065D-10  .100000000000D+01  .228700000000D+04  .000000000000D+00
     .240000000000D+01  .000000000000D+00 -.125728547573D-07  .400000000000D+01
     .720000000000D+04  .400000000000D+01
10 23 11  5  4  0  0.0 -.601420179009D-04 -.147792889038D-11  .000000000000D+00
     .530000000000D+02 -.632500000000D+02  .401230998596D-08 -.174502792435D+01
    -.327266752720D-05  .902664719615D-02  .502355396748D-05  .515368900490D+04
     .144000000000D+05  .800937414169D-07  .418552988606D+00 -.121071934700D-06
     .981211753968D+00  .293531250000D+03 -.243171673780D+01 -.782496879850D-08
    -.125005206969D-10  .100000000000D+01  .228700000000D+04  .000000000000D+00
     .240000000000D+01  .000000000000D+00  .232830643654D-08  .530000000000D+02
     .720000000000D+04  .400000000000D+01
8  23 11  5  4  0  0.0 -.150590669364D-03 -.181898940355D-11  .000000000000D+00
     .470000000000D+02  .547812500000D+02  .465662253845D-08  .248066807749D+01
     .288337469101D-05  .884398247581D-02  .796094536781D-05  .515377693939D+04
     .144000000000D+05 -.245869159698D-06 -.170483847942D+01 -.316649675369D-07
     .956063987377D+00  .222875000000D+03  .275375592830D+00 -.799497587998D-08
    -.153220667970D-09  .100000000000D+01  .228700000000D+04  .000000000000D+00
     .240000000000D+01  .000000000000D+00  .512227416039D-08  .470000000000D+02
     .720000000000D+04  .400000000000D+01
9  23 11  5  4  0  0.0 -.122655183077D-04  .111413100967D-10  .000000000000D+00
     .830000000000D+02 -.652812500000D+02  .444554231754D-08  .301043475367D+01
    -.322423875332D-05  .296842609532D-02  .805035233498D-05  .515378218079D+04
     .144000000000D+05 -.931322574615D-08  .144334555931D+01  .372529029846D-08
     .956693750203D+00  .223625000000D+03  .197277240548D+01 -.788639992878D-08
     .492877673191D-10  .100000000000D+01  .228700000000D+04  .000000000000D+00
     .240000000000D+01  .000000000000D+00  .931322574615D-09  .830000000000D+02
     .720000000000D+04  .400000000000D+01
7  23 11  5  4  0  0.0  .217850320041D-04 -.100044417195D-10  .000000000000D+00
     .750000000000D+02  .668750000000D+01  .485198781905D-08 -.350358155332D+00
     .543892383575D-06  .176200595452D-01  .842474400997D-05  .515370358467D+04
     .144000000000D+05 -.167638063431D-07  .251557531729D+01  .255182385445D-06
     .950432830942D+00  .215218750000D+03 -.216762505490D+01 -.836391981940D-08
     .228580949885D-09  .100000000000D+01  .228700000000D+04  .000000000000D+00
     .240000000000D+01  .000000000000D+00 -.111758708954D-07  .750000000000D+02
     .720000000000D+04  .400000000000D+01
4  23 11  5  4  0  0.0  .204123556614D-03  .105728759081D-10  .000000000000D+00
     .560000000000D+02 -.704375000000D+02  .429589322691D-08  .222440706005D+01
    -.356696546078D-05  .266052514780D-02  .858306884766D-05  .515361447906D+04
     .144000000000D+05 -.335276126862D-07  .150132123100D+01  .167638063431D-07
     .963272688837D+00  .217531250000D+03 -.305858067357D+01 -.786247036059D-08
     .578595529398D-10  .100000000000D+01  .228700000000D+04  .000000000000D+00
     .240000000000D+01  .000000000000D+00 -.419095158577D-08  .560000000000D+02
     .720000000000D+04  .400000000000D+01
6  23 11  5  4  0  0.0  .514061655849D-03 -.954969436862D-11  .000000000000D+00
     .760000000000D+02  .262187500000D+02  .388766193672D-08  .572950445252D+00
     .128895044327D-05  .294418225531D-02  .574439764023D-05  .515377323532D+04
     .144000000000D+05 -.372529029846D-07 -.615944873216D+00 -.204890966415D-07
     .989739523310D+00  .284531250000D+03 -.832702965375D+00 -.786639909567D-08
    -.357157734196D-12  .100000000000D+01  .228700000000D+04  .000000000000D+00
     .240000000000D+01  .000000000000D+00  .372529029846D-08  .760000000000D+02
     .720000000000D+04  .400000000000D+01
